61603,ONEWEB-0697,2024,102.77,-1.0,+,87.12,Active,0,LEO,USA,UK,Unknown,Unknown,Unknown,1 61603U 24188K   25055.91668981 -.00986590  00000+0 -73425+0 0  9992,2 61603  87.1474 118.5825 0002437 134.5684 277.8017 13.98222715 19963,13.98222715,0.0002437,LEO
61604,ONEWEB-0698,2024,102.46,-1.0,+,87.15,Active,0,LEO,USA,UK,Unknown,Unknown,Unknown,1 61604U 24188L   25055.58334491 -.00745185  00000+0 -50034+0 0  9996,2 61604  87.1685 118.7048 0005889 130.2834 107.5401 14.03640883 19683,14.03640883,0.0005889,LEO
61605,ONEWEB-0699,2024,109.88,-1.0,+,87.88,Active,0,LEO,USA,UK,Unknown,Unknown,Unknown,1 61605U 24188M   25055.60028000  .00014341  00000+0  40939-1 0  9992,2 61605  87.8794 131.4533 0002572 100.4156 259.7262 13.10445398 20762,13.10445398,0.0002572,LEO
61606,ONEWEB-0700,2024,109.88,-1.0,+,87.88,Active,0,LEO,USA,UK,Unknown,Unknown,Unknown,1 61606U 24188N   25055.75383389 -.00010876  00000+0 -31200-1 0  9995,2 61606  87.8791 131.4276 0001611  81.1755 278.9555 13.10434574 18968,13.10434574,0.0001611,LEO
61607,ONEWEB-0701,2024,109.88,-1.0,+,87.88,Active,0,LEO,USA,UK,Unknown,Unknown,Unknown,1 61607U 24188P   25055.61848870  .00013594  00000+0  38793-1 0  9994,2 61607  87.8797 131.4551 0002556  84.3861 275.7558 13.10471908 20764,13.10471908,0.0002556,LEO
61608,ONEWEB-0702,2024,102.32,-1.0,+,87.15,Active,0,LEO,USA,UK,Unknown,Unknown,Unknown,1 61608U 24188Q   25055.58334491 -.00745737  00000+0 -48383+0 0  9997,2 61608  87.1622 118.6992 0007157 129.7116 247.1915 14.05546163  5540,14.05546163,0.0007157,LEO
61609,ONEWEB-0704,2024,109.88,-1.0,+,87.9,Active,0,LEO,USA,UK,Unknown,Unknown,Unknown,1 61609U 24188R   25055.60709093 -.00003491  00000+0 -10024-1 0  9992,2 61609  87.8968 131.3546 0002311  78.5456 281.5931 13.10493544 20741,13.10493544,0.0002311,LEO
61610,ONEWEB-0705,2024,109.87,-1.0,+,87.88,Active,0,LEO,USA,UK,Unknown,Unknown,Unknown,1 61610U 24188S   25055.68754167  .00000013  00000+0  00000+0 0  9990,2 61610  87.8780 131.4498 0003388 154.3989 205.7305 13.07311431 19067,13.07311431,0.0003388,LEO
